ORBCOMM FM33            
1 25983U 99065D   24277.56529637  .00006049  00000+0  20061-2 0  9990
2 25983  45.0272 137.8089 0008415 206.3760 153.6661 14.38484833299090
ORBCOMM FM36            
1 25984U 99065E   24277.53730287  .00008319  00000+0  28531-2 0  9995
2 25984  45.0385 225.8917 0002948  59.5118 300.6021 14.36505252297497
ORBCOMM FM35            
1 25985U 99065F   24277.56303077  .00006268  00000+0  21916-2 0  9993
2 25985  45.0388 229.0071 0002588 220.4943 139.5713 14.35830914297888
ORBCOMM FM34            
1 25986U 99065G   24277.32657489  .00006122  00000+0  21418-2 0  9993
2 25986  45.0379 230.6731 0001955 128.5379 231.5645 14.35834287297961
ORBCOMM FM38            
1 33060U 08031A   24277.51406146  .00008520  00000+0  11711-2 0  9990
2 33060  48.4387  96.5047 0004570  10.4052 349.6957 14.78870513876724
ORBCOMM FM41            
1 33061U 08031B   24277.52838001  .00007761  00000+0  10769-2 0  9999
2 33061  48.4421 103.4114 0003946 353.2123  52.5133 14.78572149876225
ORBCOMM FM29            
1 33062U 08031C   24277.51664737  .00008344  00000+0  11560-2 0  9990
2 33062  48.4374 111.4903 0005708 355.5307  24.4186 14.78552130876139
ORBCOMM FM39            
1 33063U 08031D   24277.31364146  .00007220  00000+0  10318-2 0  9992
2 33063  48.4386 134.1519 0006951 329.8639  30.1875 14.77393539875785
