<?xml version="1.0" encoding="UTF-8"?>
<ndm xmlns:xsi="http://www.w3.org/2001/XMLSchema-instance" xsi:noNamespaceSchemaLocation="https://sanaregistry.org/r/ndmxml_unqualified/ndmxml-2.0.0-master-2.0.xsd">
<omm id="CCSDS_OMM_VERS" version="2.0">
<header><CREATION_DATE/><ORIGINATOR/></header><body><segment><metadata><OBJECT_NAME>ORBCOMM FM33</OBJECT_NAME><OBJECT_ID>1999-065D</OBJECT_ID><CENTER_NAME>EARTH</CENTER_NAME><REF_FRAME>TEME</REF_FRAME><TIME_SYSTEM>UTC</TIME_SYSTEM><MEAN_ELEMENT_THEORY>SGP4</MEAN_ELEMENT_THEORY></metadata><data><meanElements><EPOCH>2024-10-03T13:34:01.606368</EPOCH><MEAN_MOTION>14.38484833</MEAN_MOTION><ECCENTRICITY>.0008415</ECCENTRICITY><INCLINATION>45.0272</INCLINATION><RA_OF_ASC_NODE>137.8089</RA_OF_ASC_NODE><ARG_OF_PERICENTER>206.3760</ARG_OF_PERICENTER><MEAN_ANOMALY>153.6661</MEAN_ANOMALY></meanElements><tleParameters><EPHEMERIS_TYPE>0</EPHEMERIS_TYPE><CLASSIFICATION_TYPE>U</CLASSIFICATION_TYPE><NORAD_CAT_ID>25983</NORAD_CAT_ID><ELEMENT_SET_NO>999</ELEMENT_SET_NO><REV_AT_EPOCH>29909</REV_AT_EPOCH><BSTAR>.20061E-2</BSTAR><MEAN_MOTION_DOT>.6049E-4</MEAN_MOTION_DOT><MEAN_MOTION_DDOT>0</MEAN_MOTION_DDOT></tleParameters></data></segment></body></omm>
<omm id="CCSDS_OMM_VERS" version="2.0">
<header><CREATION_DATE/><ORIGINATOR/></header><body><segment><metadata><OBJECT_NAME>ORBCOMM FM36</OBJECT_NAME><OBJECT_ID>1999-065E</OBJECT_ID><CENTER_NAME>EARTH</CENTER_NAME><REF_FRAME>TEME</REF_FRAME><TIME_SYSTEM>UTC</TIME_SYSTEM><MEAN_ELEMENT_THEORY>SGP4</MEAN_ELEMENT_THEORY></metadata><data><meanElements><EPOCH>2024-10-03T12:53:42.967968</EPOCH><MEAN_MOTION>14.36505252</MEAN_MOTION><ECCENTRICITY>.0002948</ECCENTRICITY><INCLINATION>45.0385</INCLINATION><RA_OF_ASC_NODE>225.8917</RA_OF_ASC_NODE><ARG_OF_PERICENTER>59.5118</ARG_OF_PERICENTER><MEAN_ANOMALY>300.6021</MEAN_ANOMALY></meanElements><tleParameters><EPHEMERIS_TYPE>0</EPHEMERIS_TYPE><CLASSIFICATION_TYPE>U</CLASSIFICATION_TYPE><NORAD_CAT_ID>25984</NORAD_CAT_ID><ELEMENT_SET_NO>999</ELEMENT_SET_NO><REV_AT_EPOCH>29749</REV_AT_EPOCH><BSTAR>.28531E-2</BSTAR><MEAN_MOTION_DOT>.8319E-4</MEAN_MOTION_DOT><MEAN_MOTION_DDOT>0</MEAN_MOTION_DDOT></tleParameters></data></segment></body></omm>
<omm id="CCSDS_OMM_VERS" version="2.0">
<header><CREATION_DATE/><ORIGINATOR/></header><body><segment><metadata><OBJECT_NAME>ORBCOMM FM35</OBJECT_NAME><OBJECT_ID>1999-065F</OBJECT_ID><CENTER_NAME>EARTH</CENTER_NAME><REF_FRAME>TEME</REF_FRAME><TIME_SYSTEM>UTC</TIME_SYSTEM><MEAN_ELEMENT_THEORY>SGP4</MEAN_ELEMENT_THEORY></metadata><data><meanElements><EPOCH>2024-10-03T13:30:45.858528</EPOCH><MEAN_MOTION>14.35830914</MEAN_MOTION><ECCENTRICITY>.0002588</ECCENTRICITY><INCLINATION>45.0388</INCLINATION><RA_OF_ASC_NODE>229.0071</RA_OF_ASC_NODE><ARG_OF_PERICENTER>220.4943</ARG_OF_PERICENTER><MEAN_ANOMALY>139.5713</MEAN_ANOMALY></meanElements><tleParameters><EPHEMERIS_TYPE>0</EPHEMERIS_TYPE><CLASSIFICATION_TYPE>U</CLASSIFICATION_TYPE><NORAD_CAT_ID>25985</NORAD_CAT_ID><ELEMENT_SET_NO>999</ELEMENT_SET_NO><REV_AT_EPOCH>29788</REV_AT_EPOCH><BSTAR>.21916E-2</BSTAR><MEAN_MOTION_DOT>.6268E-4</MEAN_MOTION_DOT><MEAN_MOTION_DDOT>0</MEAN_MOTION_DDOT></tleParameters></data></segment></body></omm>
<omm id="CCSDS_OMM_VERS" version="2.0">
<header><CREATION_DATE/><ORIGINATOR/></header><body><segment><metadata><OBJECT_NAME>ORBCOMM FM34</OBJECT_NAME><OBJECT_ID>1999-065G</OBJECT_ID><CENTER_NAME>EARTH</CENTER_NAME><REF_FRAME>TEME</REF_FRAME><TIME_SYSTEM>UTC</TIME_SYSTEM><MEAN_ELEMENT_THEORY>SGP4</MEAN_ELEMENT_THEORY></metadata><data><meanElements><EPOCH>2024-10-03T07:50:16.070496</EPOCH><MEAN_MOTION>14.35834287</MEAN_MOTION><ECCENTRICITY>.0001955</ECCENTRICITY><INCLINATION>45.0379</INCLINATION><RA_OF_ASC_NODE>230.6731</RA_OF_ASC_NODE><ARG_OF_PERICENTER>128.5379</ARG_OF_PERICENTER><MEAN_ANOMALY>231.5645</MEAN_ANOMALY></meanElements><tleParameters><EPHEMERIS_TYPE>0</EPHEMERIS_TYPE><CLASSIFICATION_TYPE>U</CLASSIFICATION_TYPE><NORAD_CAT_ID>25986</NORAD_CAT_ID><ELEMENT_SET_NO>999</ELEMENT_SET_NO><REV_AT_EPOCH>29796</REV_AT_EPOCH><BSTAR>.21418E-2</BSTAR><MEAN_MOTION_DOT>.6122E-4</MEAN_MOTION_DOT><MEAN_MOTION_DDOT>0</MEAN_MOTION_DDOT></tleParameters></data></segment></body></omm>
<omm id="CCSDS_OMM_VERS" version="2.0">
<header><CREATION_DATE/><ORIGINATOR/></header><body><segment><metadata><OBJECT_NAME>ORBCOMM FM38</OBJECT_NAME><OBJECT_ID>2008-031A</OBJECT_ID><CENTER_NAME>EARTH</CENTER_NAME><REF_FRAME>TEME</REF_FRAME><TIME_SYSTEM>UTC</TIME_SYSTEM><MEAN_ELEMENT_THEORY>SGP4</MEAN_ELEMENT_THEORY></metadata><data><meanElements><EPOCH>2024-10-03T12:20:14.910144</EPOCH><MEAN_MOTION>14.78870513</MEAN_MOTION><ECCENTRICITY>.000457</ECCENTRICITY><INCLINATION>48.4387</INCLINATION><RA_OF_ASC_NODE>96.5047</RA_OF_ASC_NODE><ARG_OF_PERICENTER>10.4052</ARG_OF_PERICENTER><MEAN_ANOMALY>349.6957</MEAN_ANOMALY></meanElements><tleParameters><EPHEMERIS_TYPE>0</EPHEMERIS_TYPE><CLASSIFICATION_TYPE>U</CLASSIFICATION_TYPE><NORAD_CAT_ID>33060</NORAD_CAT_ID><ELEMENT_SET_NO>999</ELEMENT_SET_NO><REV_AT_EPOCH>87672</REV_AT_EPOCH><BSTAR>.11711E-2</BSTAR><MEAN_MOTION_DOT>.852E-4</MEAN_MOTION_DOT><MEAN_MOTION_DDOT>0</MEAN_MOTION_DDOT></tleParameters></data></segment></body></omm>
<omm id="CCSDS_OMM_VERS" version="2.0">
<header><CREATION_DATE/><ORIGINATOR/></header><body><segment><metadata><OBJECT_NAME>ORBCOMM FM41</OBJECT_NAME><OBJECT_ID>2008-031B</OBJECT_ID><CENTER_NAME>EARTH</CENTER_NAME><REF_FRAME>TEME</REF_FRAME><TIME_SYSTEM>UTC</TIME_SYSTEM><MEAN_ELEMENT_THEORY>SGP4</MEAN_ELEMENT_THEORY></metadata><data><meanElements><EPOCH>2024-10-03T12:40:52.032864</EPOCH><MEAN_MOTION>14.78572149</MEAN_MOTION><ECCENTRICITY>.0003946</ECCENTRICITY><INCLINATION>48.4421</INCLINATION><RA_OF_ASC_NODE>103.4114</RA_OF_ASC_NODE><ARG_OF_PERICENTER>353.2123</ARG_OF_PERICENTER><MEAN_ANOMALY>52.5133</MEAN_ANOMALY></meanElements><tleParameters><EPHEMERIS_TYPE>0</EPHEMERIS_TYPE><CLASSIFICATION_TYPE>U</CLASSIFICATION_TYPE><NORAD_CAT_ID>33061</NORAD_CAT_ID><ELEMENT_SET_NO>999</ELEMENT_SET_NO><REV_AT_EPOCH>87622</REV_AT_EPOCH><BSTAR>.10769E-2</BSTAR><MEAN_MOTION_DOT>.7761E-4</MEAN_MOTION_DOT><MEAN_MOTION_DDOT>0</MEAN_MOTION_DDOT></tleParameters></data></segment></body></omm>
<omm id="CCSDS_OMM_VERS" version="2.0">
<header><CREATION_DATE/><ORIGINATOR/></header><body><segment><metadata><OBJECT_NAME>ORBCOMM FM29</OBJECT_NAME><OBJECT_ID>2008-031C</OBJECT_ID><CENTER_NAME>EARTH</CENTER_NAME><REF_FRAME>TEME</REF_FRAME><TIME_SYSTEM>UTC</TIME_SYSTEM><MEAN_ELEMENT_THEORY>SGP4</MEAN_ELEMENT_THEORY></metadata><data><meanElements><EPOCH>2024-10-03T12:23:58.332768</EPOCH><MEAN_MOTION>14.78552130</MEAN_MOTION><ECCENTRICITY>.0005708</ECCENTRICITY><INCLINATION>48.4374</INCLINATION><RA_OF_ASC_NODE>111.4903</RA_OF_ASC_NODE><ARG_OF_PERICENTER>355.5307</ARG_OF_PERICENTER><MEAN_ANOMALY>24.4186</MEAN_ANOMALY></meanElements><tleParameters><EPHEMERIS_TYPE>0</EPHEMERIS_TYPE><CLASSIFICATION_TYPE>U</CLASSIFICATION_TYPE><NORAD_CAT_ID>33062</NORAD_CAT_ID><ELEMENT_SET_NO>999</ELEMENT_SET_NO><REV_AT_EPOCH>87613</REV_AT_EPOCH><BSTAR>.1156E-2</BSTAR><MEAN_MOTION_DOT>.8344E-4</MEAN_MOTION_DOT><MEAN_MOTION_DDOT>0</MEAN_MOTION_DDOT></tleParameters></data></segment></body></omm>
<omm id="CCSDS_OMM_VERS" version="2.0">
<header><CREATION_DATE/><ORIGINATOR/></header><body><segment><metadata><OBJECT_NAME>ORBCOMM FM39</OBJECT_NAME><OBJECT_ID>2008-031D</OBJECT_ID><CENTER_NAME>EARTH</CENTER_NAME><REF_FRAME>TEME</REF_FRAME><TIME_SYSTEM>UTC</TIME_SYSTEM><MEAN_ELEMENT_THEORY>SGP4</MEAN_ELEMENT_THEORY></metadata><data><meanElements><EPOCH>2024-10-03T07:31:38.622144</EPOCH><MEAN_MOTION>14.77393539</MEAN_MOTION><ECCENTRICITY>.0006951</ECCENTRICITY><INCLINATION>48.4386</INCLINATION><RA_OF_ASC_NODE>134.1519</RA_OF_ASC_NODE><ARG_OF_PERICENTER>329.8639</ARG_OF_PERICENTER><MEAN_ANOMALY>30.1875</MEAN_ANOMALY></meanElements><tleParameters><EPHEMERIS_TYPE>0</EPHEMERIS_TYPE><CLASSIFICATION_TYPE>U</CLASSIFICATION_TYPE><NORAD_CAT_ID>33063</NORAD_CAT_ID><ELEMENT_SET_NO>999</ELEMENT_SET_NO><REV_AT_EPOCH>87578</REV_AT_EPOCH><BSTAR>.10318E-2</BSTAR><MEAN_MOTION_DOT>.722E-4</MEAN_MOTION_DOT><MEAN_MOTION_DDOT>0</MEAN_MOTION_DDOT></tleParameters></data></segment></body></omm>

</ndm>
